#aV2008  4  9  0  0   .00000000      96 DD+AD WGS84 FIT  NGA
## 1474 259200.00000000   900.00000000 54565  .0000000000000
+   31     2  3  4  5  6  7  8  9 10 11 12 13 14 15 16 17 18
+         19 20 21 22 23 24 25 26 27 28 29 30 31 32  0  0  0
+          0  0  0  0  0  0  0  0  0  0  0  0  0  0  0  0  0
+          0  0  0  0  0  0  0  0  0  0  0  0  0  0  0  0  0
+          0  0  0  0  0  0  0  0  0  0  0  0  0  0  0  0  0
++         0  0  0  0  0  0  0  0  0  0  0  0  0  0  0  0  0
++         0  0  0  0  0  0  0  0  0  0  0  0  0  0  0  0  0
++         0  0  0  0  0  0  0  0  0  0  0  0  0  0  0  0  0
++         0  0  0  0  0  0  0  0  0  0  0  0  0  0  0  0  0
++         0  0  0  0  0  0  0  0  0  0  0  0  0  0  0  0  0
%c cc cc ccc ccc cccc cccc cccc cccc ccccc ccccc ccccc ccccc
%c cc cc ccc ccc cccc cccc cccc cccc ccccc ccccc ccccc ccccc
%f  0.0000000  0.000000000  0.00000000000  0.000000000000000
%f  0.0000000  0.000000000  0.00000000000  0.000000000000000
%i    0    0    0    0      0      0      0      0         0
%i    0    0    0    0      0      0      0      0         0
/*      NGA, ST. LOUIS,MO.                                  
/*   EPHEMERIS COMPUTED FROM  3 DAYS OF DATA                
/* CCCCCCCCCCCCCCCCCCCCCCCCCCCCCCCCCCCCCCCCCCCCCCCCCCCCCCCCC
/* CCCCCCCCCCCCCCCCCCCCCCCCCCCCCCCCCCCCCCCCCCCCCCCCCCCCCCCCC
*  2008  4  9  2 45   .00000000                                                 
P  2 -16350.865152  12838.173712  16161.117259    189.042357                    
V  2 -21143.454710  -1029.248755 -20700.152121       .032096                    
P  3  10447.033574 -24133.630727   1686.777117    211.744184                    
V  3   3078.021280   3800.853206  31091.480271       .052262                    
P  4 -24946.411582   6397.700022   7133.219858    -42.471039                    
V  4  -9247.633006  -2452.819797 -29373.712499      -.076742                    
P  5  15856.233962  21381.560282  -1285.147011    744.815785                    
V  5  -3388.044030   1019.200936 -31178.982267       .096053                    
P  6  18143.474940 -10810.226535  16326.409211     93.764181                    
V  6  -6325.610405  19583.423563  20180.434395       .125298                    
P  7 -21054.361030  -8436.304713  13848.096186    -76.632753                    
V  7  17442.246333  -3152.539660  24494.910042       .126318                    
P  8 -26777.284482   -637.631545   1241.493004   -148.215209                    
V  8   1643.600296  -1734.251194  31874.759795      -.014812                    
P  9   6824.313741  14396.426397 -21900.084108    119.079551                    
V  9 -26133.289440   2864.602281  -6283.268863       .018709                    
P 10  -4058.956977  18096.593106  18747.999980      -.524593                    
V 10 -14136.951360 -19704.704226  16166.833276      -.002804                    
P 11 -11230.863606 -13774.581770 -19956.498547     26.463372                    
V 11  24198.033343  -7338.664043  -8289.953596      -.001737                    
P 12  11510.059787  23503.112894  -4711.428496   -358.853922                    
V 12  -5531.033344  -3648.118991 -30998.666346      -.002567                    
P 13 -11613.246499  -8652.906643  22151.486612    249.650925                    
V 13  13928.542002 -24645.681531  -2284.840519       .019122                    
P 14  17759.807497  -8472.393292 -17695.118880   -279.334484                    
V 14  -9641.960238  20518.693369 -19481.332516       .039876                    
P 15  -5380.797652  24587.209657  -8450.607450    -94.993981                    
V 15  -7146.262142   8495.436135  29193.682665      -.047690                    
P 16   7967.650057 -14430.354365  20859.343019    129.125158                    
V 16  14847.426878  21783.811283   9622.783558      -.011903                    
P 17 -18056.721065   8144.631309 -17583.021696     40.080354                    
V 17   8719.817436 -20772.040791 -18694.673303      -.003429                    
P 18  18695.624674  15379.690912 -11151.821768   -188.994144                    
V 18   5259.417244  13560.784789  26744.826408       .034668                    
P 19   6519.911699 -23883.940647  -9287.382098     26.744450                    
V 19   8498.264209  -8888.602423  28731.581464       .010956                    
P 20 -13058.909245 -22974.595881  -3014.708150    116.884843                    
V 20   4687.196978   1265.073846 -31122.841631      -.008010                    
P 21  24630.854663   5901.896642   9128.870727     67.498676                    
V 21 -11113.484015   3083.946981  27925.108165      -.009467                    
P 22  17515.415203   1500.436699 -19771.093634    210.399359                    
V 22  11966.062066  22528.536638  12170.540239       .002205                    
P 23  -3017.876470 -19928.069562  17106.314236    346.452467                    
V 23  11410.487580 -18792.548069 -20028.615785       .024571                    
P 24  13528.393722  13185.299890  18725.353984     84.843404                    
V 24 -23538.081061   1841.283635  16129.164658       .030207                    
P 25 -15959.598125 -10622.862130  18661.393028    -63.710360                    
V 25  22521.912204  -4959.922245  16943.225562      -.306633                    
P 26  -8667.017250  24071.216493  -6400.646159    227.269530                    
V 26  -5516.034295   5623.579626  31455.855935       .087795                    
P 27 -23155.056605  -5834.666149  12452.907181    180.061993                    
V 27  14370.170740  -3578.832395  26339.455190       .026493                    
P 28 -18055.186797  -4375.078300 -18728.301953    -17.583081                    
V 28 -11810.569454 -21461.473843  15745.117676      -.006126                    
P 29  10258.581155  12429.471099  21235.464081    -44.829824                    
V 29 -12991.215565  23318.689797  -7388.132083       .013892                    
P 30  18102.498670  18664.465554   5343.848003     71.254505                    
V 30   1680.389989   7654.006960 -30419.425711       .015515                    
P 31  23734.800206  -7910.523551   9285.177798    -15.766978                    
V 31  11573.663771   1517.224764 -28837.245280      -.014434                    
P 32   6309.451326 -16433.717658 -19525.486588    265.872664                    
V 32  13227.467096  21990.889726 -13765.430500       .069205                    
EOF
